{
"type": "FeatureCollection",
"name": "iq_by_country_symbol",
"features": [
{ "type": "Feature", "properties": { "name": "Malaysia", "name_ja": "マレーシア", "avg_iq": 102.02, "sd_iq": 13.26 }, "geometry": { "type": "Point", "coordinates": [ 109.698868442166656, 3.792392850953018 ] } },
{ "type": "Feature", "properties": { "name": "Chile", "name_ja": "チリ", "avg_iq": 98.1, "sd_iq": 13.25 }, "geometry": { "type": "Point", "coordinates": [ -71.364374764793666, -37.743606635232418 ] } },
{ "type": "Feature", "properties": { "name": "Bolivia", "name_ja": "ボリビア", "avg_iq": 97.37, "sd_iq": 12.14 }, "geometry": { "type": "Point", "coordinates": [ -64.684753728808388, -16.706876810559198 ] } },
{ "type": "Feature", "properties": { "name": "Peru", "name_ja": "ペルー", "avg_iq": 102.67, "sd_iq": 13.09 }, "geometry": { "type": "Point", "coordinates": [ -74.378064572107149, -9.154388480752166 ] } },
{ "type": "Feature", "properties": { "name": "Argentina", "name_ja": "アルゼンチン", "avg_iq": 98.72, "sd_iq": 13.94 }, "geometry": { "type": "Point", "coordinates": [ -65.173077369535278, -35.378679440305859 ] } },
{ "type": "Feature", "properties": { "name": "Cyprus", "name_ja": "キプロス", "avg_iq": 105.55, "sd_iq": 16.23 }, "geometry": { "type": "Point", "coordinates": [ 32.989991697320598, 34.915217043811879 ] } },
{ "type": "Feature", "properties": { "name": "India", "name_ja": "インド", "avg_iq": 99.4, "sd_iq": 11.39 }, "geometry": { "type": "Point", "coordinates": [ 79.607121645295521, 22.88798589506721 ] } },
{ "type": "Feature", "properties": { "name": "Israel", "name_ja": "イスラエル", "avg_iq": 105.13, "sd_iq": 15.71 }, "geometry": { "type": "Point", "coordinates": [ 34.997009194279848, 31.447612123433505 ] } },
{ "type": "Feature", "properties": { "name": "Lebanon", "name_ja": "レバノン", "avg_iq": 100.04, "sd_iq": 12.46 }, "geometry": { "type": "Point", "coordinates": [ 35.879830516129466, 33.920093267470143 ] } },
{ "type": "Feature", "properties": { "name": "Ethiopia", "name_ja": "エチオピア", "avg_iq": 95.58, "sd_iq": 10.34 }, "geometry": { "type": "Point", "coordinates": [ 39.600551034861539, 8.622951736470814 ] } },
{ "type": "Feature", "properties": { "name": "Kenya", "name_ja": "ケニア", "avg_iq": 94.67, "sd_iq": 9.45 }, "geometry": { "type": "Point", "coordinates": [ 37.822439906248405, 0.550766077127684 ] } },
{ "type": "Feature", "properties": { "name": "Syria", "name_ja": "シリア", "avg_iq": 100.96, "sd_iq": 11.66 }, "geometry": { "type": "Point", "coordinates": [ 38.504564757846076, 35.023003460498103 ] } },
{ "type": "Feature", "properties": { "name": "France", "name_ja": "フランス", "avg_iq": 100.37, "sd_iq": 13.01 }, "geometry": { "type": "Point", "coordinates": [ -2.755221189920642, 42.18010698062934 ] } },
{ "type": "Feature", "properties": { "name": "South Korea", "name_ja": "大韓民国", "avg_iq": 110.71, "sd_iq": 14.44 }, "geometry": { "type": "Point", "coordinates": [ 127.819093966702411, 36.373353545846136 ] } },
{ "type": "Feature", "properties": { "name": "Morocco", "name_ja": "モロッコ", "avg_iq": 99.54, "sd_iq": 12.96 }, "geometry": { "type": "Point", "coordinates": [ -8.396435049672833, 29.841692143051965 ] } },
{ "type": "Feature", "properties": { "name": "Nicaragua", "name_ja": "ニカラグア", "avg_iq": 93.49, "sd_iq": 8.39 }, "geometry": { "type": "Point", "coordinates": [ -85.033410407504476, 12.845494587159392 ] } },
{ "type": "Feature", "properties": { "name": "Ukraine", "name_ja": "ウクライナ", "avg_iq": 94.95, "sd_iq": 11.79 }, "geometry": { "type": "Point", "coordinates": [ 31.255306143181627, 49.160078290898177 ] } },
{ "type": "Feature", "properties": { "name": "Belarus", "name_ja": "ベラルーシ", "avg_iq": 99.7, "sd_iq": 12.42 }, "geometry": { "type": "Point", "coordinates": [ 28.033566574373371, 53.53188043500036 ] } },
{ "type": "Feature", "properties": { "name": "South Africa", "name_ja": "南アフリカ共和国", "avg_iq": 95.71, "sd_iq": 11.84 }, "geometry": { "type": "Point", "coordinates": [ 25.08736443523809, -29.001032178253524 ] } },
{ "type": "Feature", "properties": { "name": "Oman", "name_ja": "オマーン", "avg_iq": 95.14, "sd_iq": 9.06 }, "geometry": { "type": "Point", "coordinates": [ 56.092656546363983, 20.601805654261408 ] } },
{ "type": "Feature", "properties": { "name": "Uzbekistan", "name_ja": "ウズベキスタン", "avg_iq": 93.64, "sd_iq": 11.0 }, "geometry": { "type": "Point", "coordinates": [ 63.139908889502308, 41.756035869366755 ] } },
{ "type": "Feature", "properties": { "name": "Tajikistan", "name_ja": "タジキスタン", "avg_iq": 94.26, "sd_iq": 10.26 }, "geometry": { "type": "Point", "coordinates": [ 71.015834373548799, 38.529885663905389 ] } },
{ "type": "Feature", "properties": { "name": "Lithuania", "name_ja": "リトアニア", "avg_iq": 98.77, "sd_iq": 14.7 }, "geometry": { "type": "Point", "coordinates": [ 23.888249015741685, 55.327023641182095 ] } },
{ "type": "Feature", "properties": { "name": "Brazil", "name_ja": "ブラジル", "avg_iq": 94.56, "sd_iq": 12.79 }, "geometry": { "type": "Point", "coordinates": [ -53.092482369610387, -10.780858826773873 ] } },
{ "type": "Feature", "properties": { "name": "Uruguay", "name_ja": "ウルグアイ", "avg_iq": 97.09, "sd_iq": 12.02 }, "geometry": { "type": "Point", "coordinates": [ -56.017130243133487, -32.798251145401849 ] } },
{ "type": "Feature", "properties": { "name": "Mongolia", "name_ja": "モンゴル国", "avg_iq": 102.79, "sd_iq": 13.09 }, "geometry": { "type": "Point", "coordinates": [ 103.056286662065162, 46.825806066032179 ] } },
{ "type": "Feature", "properties": { "name": "Russia", "name_ja": "ロシア", "avg_iq": 98.52, "sd_iq": 12.35 }, "geometry": { "type": "Point", "coordinates": [ 96.627588417011509, 61.966852896884731 ] } },
{ "type": "Feature", "properties": { "name": "Czechia", "name_ja": "チェコ", "avg_iq": 107.04, "sd_iq": 14.95 }, "geometry": { "type": "Point", "coordinates": [ 15.314102910354332, 49.732448164797546 ] } },
{ "type": "Feature", "properties": { "name": "Germany", "name_ja": "ドイツ", "avg_iq": 104.94, "sd_iq": 14.69 }, "geometry": { "type": "Point", "coordinates": [ 10.381493786068503, 51.106363532388691 ] } },
{ "type": "Feature", "properties": { "name": "Estonia", "name_ja": "エストニア", "avg_iq": 100.54, "sd_iq": 12.96 }, "geometry": { "type": "Point", "coordinates": [ 25.535793207468043, 58.67101415039663 ] } },
{ "type": "Feature", "properties": { "name": "Latvia", "name_ja": "ラトビア", "avg_iq": 96.82, "sd_iq": 11.95 }, "geometry": { "type": "Point", "coordinates": [ 24.908622427569245, 56.851819479606235 ] } },
{ "type": "Feature", "properties": { "name": "Norway", "name_ja": "ノルウェー", "avg_iq": 106.93, "sd_iq": 18.89 }, "geometry": { "type": "Point", "coordinates": [ 15.409599158479066, 68.794272921757525 ] } },
{ "type": "Feature", "properties": { "name": "Sweden", "name_ja": "スウェーデン", "avg_iq": 106.53, "sd_iq": 16.79 }, "geometry": { "type": "Point", "coordinates": [ 16.754466440901734, 62.777099868192188 ] } },
{ "type": "Feature", "properties": { "name": "Finland", "name_ja": "フィンランド", "avg_iq": 109.28, "sd_iq": 18.9 }, "geometry": { "type": "Point", "coordinates": [ 26.270795068535062, 64.495359068865426 ] } },
{ "type": "Feature", "properties": { "name": "Vietnam", "name_ja": "ベトナム", "avg_iq": 108.79, "sd_iq": 13.81 }, "geometry": { "type": "Point", "coordinates": [ 106.300935236003113, 16.642182606042407 ] } },
{ "type": "Feature", "properties": { "name": "Cambodia", "name_ja": "カンボジア", "avg_iq": 96.11, "sd_iq": 10.87 }, "geometry": { "type": "Point", "coordinates": [ 104.90280424756871, 12.715562472813611 ] } },
{ "type": "Feature", "properties": { "name": "Luxembourg", "name_ja": "ルクセンブルク", "avg_iq": 102.32, "sd_iq": 14.39 }, "geometry": { "type": "Point", "coordinates": [ 6.071763967273555, 49.766824275810876 ] } },
{ "type": "Feature", "properties": { "name": "United Arab Emirates", "name_ja": "アラブ首長国連邦", "avg_iq": 97.01, "sd_iq": 12.68 }, "geometry": { "type": "Point", "coordinates": [ 54.300795594139188, 23.90578306175194 ] } },
{ "type": "Feature", "properties": { "name": "Belgium", "name_ja": "ベルギー", "avg_iq": 101.98, "sd_iq": 13.26 }, "geometry": { "type": "Point", "coordinates": [ 4.639960507668175, 50.637461635334354 ] } },
{ "type": "Feature", "properties": { "name": "Georgia", "name_ja": "ジョージア", "avg_iq": 98.18, "sd_iq": 12.55 }, "geometry": { "type": "Point", "coordinates": [ 43.50752633170687, 42.168800776678253 ] } },
{ "type": "Feature", "properties": { "name": "Albania", "name_ja": "アルバニア", "avg_iq": 99.28, "sd_iq": 12.63 }, "geometry": { "type": "Point", "coordinates": [ 20.053819149433931, 41.142482188608135 ] } },
{ "type": "Feature", "properties": { "name": "Azerbaijan", "name_ja": "アゼルバイジャン", "avg_iq": 97.36, "sd_iq": 12.08 }, "geometry": { "type": "Point", "coordinates": [ 47.542111290523799, 40.289118964075946 ] } },
{ "type": "Feature", "properties": { "name": "Turkey", "name_ja": "トルコ", "avg_iq": 107.74, "sd_iq": 16.96 }, "geometry": { "type": "Point", "coordinates": [ 35.167239386750794, 39.061080597861277 ] } },
{ "type": "Feature", "properties": { "name": "Spain", "name_ja": "スペイン", "avg_iq": 102.73, "sd_iq": 13.89 }, "geometry": { "type": "Point", "coordinates": [ -3.652637016952272, 40.227233701418989 ] } },
{ "type": "Feature", "properties": { "name": "Laos", "name_ja": "ラオス", "avg_iq": 91.08, "sd_iq": 11.24 }, "geometry": { "type": "Point", "coordinates": [ 103.737871935862216, 18.502301628671958 ] } },
{ "type": "Feature", "properties": { "name": "Kyrgyzstan", "name_ja": "キルギス", "avg_iq": 92.31, "sd_iq": 11.02 }, "geometry": { "type": "Point", "coordinates": [ 74.541669437379454, 41.461918685159098 ] } },
{ "type": "Feature", "properties": { "name": "Denmark", "name_ja": "デンマーク", "avg_iq": 102.4, "sd_iq": 14.75 }, "geometry": { "type": "Point", "coordinates": [ 10.051389702776865, 55.965377456638024 ] } },
{ "type": "Feature", "properties": { "name": "Tunisia", "name_ja": "チュニジア", "avg_iq": 99.47, "sd_iq": 12.3 }, "geometry": { "type": "Point", "coordinates": [ 9.554626245563439, 34.119405222930347 ] } },
{ "type": "Feature", "properties": { "name": "Romania", "name_ja": "ルーマニア", "avg_iq": 106.44, "sd_iq": 14.87 }, "geometry": { "type": "Point", "coordinates": [ 24.972941855208134, 45.8534640978176 ] } },
{ "type": "Feature", "properties": { "name": "Hungary", "name_ja": "ハンガリー", "avg_iq": 111.19, "sd_iq": 14.3 }, "geometry": { "type": "Point", "coordinates": [ 19.396759267358192, 47.163243686593333 ] } },
{ "type": "Feature", "properties": { "name": "Poland", "name_ja": "ポーランド", "avg_iq": 102.66, "sd_iq": 15.85 }, "geometry": { "type": "Point", "coordinates": [ 19.394322139764661, 52.124771818873711 ] } },
{ "type": "Feature", "properties": { "name": "Ireland", "name_ja": "アイルランド", "avg_iq": 98.55, "sd_iq": 11.2 }, "geometry": { "type": "Point", "coordinates": [ -8.145044352542058, 53.17822152675911 ] } },
{ "type": "Feature", "properties": { "name": "United Kingdom", "name_ja": "イギリス", "avg_iq": 97.67, "sd_iq": 12.44 }, "geometry": { "type": "Point", "coordinates": [ -2.886951476274188, 54.147048188823284 ] } },
{ "type": "Feature", "properties": { "name": "Greece", "name_ja": "ギリシャ", "avg_iq": 104.88, "sd_iq": 15.46 }, "geometry": { "type": "Point", "coordinates": [ 22.974818925944053, 39.051181181685926 ] } },
{ "type": "Feature", "properties": { "name": "Iraq", "name_ja": "イラク", "avg_iq": 99.43, "sd_iq": 13.04 }, "geometry": { "type": "Point", "coordinates": [ 43.744977021095387, 33.039803777256871 ] } },
{ "type": "Feature", "properties": { "name": "Italy", "name_ja": "イタリア", "avg_iq": 110.79, "sd_iq": 15.94 }, "geometry": { "type": "Point", "coordinates": [ 12.071907092729299, 42.786433996368004 ] } },
{ "type": "Feature", "properties": { "name": "Switzerland", "name_ja": "スイス", "avg_iq": 105.6, "sd_iq": 14.51 }, "geometry": { "type": "Point", "coordinates": [ 8.215353657453999, 46.79895686977882 ] } },
{ "type": "Feature", "properties": { "name": "Iran", "name_ja": "イラン", "avg_iq": 110.05, "sd_iq": 14.11 }, "geometry": { "type": "Point", "coordinates": [ 54.276946744424912, 32.570678173567522 ] } },
{ "type": "Feature", "properties": { "name": "Netherlands", "name_ja": "オランダ", "avg_iq": 102.13, "sd_iq": 13.77 }, "geometry": { "type": "Point", "coordinates": [ 5.216814209198501, 52.069791654352663 ] } },
{ "type": "Feature", "properties": { "name": "Serbia", "name_ja": "セルビア", "avg_iq": 110.59, "sd_iq": 16.72 }, "geometry": { "type": "Point", "coordinates": [ 20.789252443775904, 44.222147617351517 ] } },
{ "type": "Feature", "properties": { "name": "Nigeria", "name_ja": "ナイジェリア", "avg_iq": 92.81, "sd_iq": 10.36 }, "geometry": { "type": "Point", "coordinates": [ 8.091239276085945, 9.595314826321536 ] } },
{ "type": "Feature", "properties": { "name": "Croatia", "name_ja": "クロアチア", "avg_iq": 107.47, "sd_iq": 13.69 }, "geometry": { "type": "Point", "coordinates": [ 16.395724777346707, 45.06750474696441 ] } },
{ "type": "Feature", "properties": { "name": "Slovenia", "name_ja": "スロベニア", "avg_iq": 108.42, "sd_iq": 13.98 }, "geometry": { "type": "Point", "coordinates": [ 14.808103978871667, 46.116119062921243 ] } },
{ "type": "Feature", "properties": { "name": "Qatar", "name_ja": "カタール", "avg_iq": 98.63, "sd_iq": 11.55 }, "geometry": { "type": "Point", "coordinates": [ 51.186831293557326, 25.31307459410549 ] } },
{ "type": "Feature", "properties": { "name": "Saudi Arabia", "name_ja": "サウジアラビア", "avg_iq": 96.16, "sd_iq": 11.37 }, "geometry": { "type": "Point", "coordinates": [ 44.536863675687592, 24.122327065054925 ] } },
{ "type": "Feature", "properties": { "name": "Pakistan", "name_ja": "パキスタン", "avg_iq": 93.49, "sd_iq": 10.39 }, "geometry": { "type": "Point", "coordinates": [ 69.341343105741913, 29.948496826472315 ] } },
{ "type": "Feature", "properties": { "name": "Bulgaria", "name_ja": "ブルガリア", "avg_iq": 104.11, "sd_iq": 14.05 }, "geometry": { "type": "Point", "coordinates": [ 25.217512511716745, 42.768522614359611 ] } },
{ "type": "Feature", "properties": { "name": "Thailand", "name_ja": "タイ王国", "avg_iq": 92.61, "sd_iq": 12.98 }, "geometry": { "type": "Point", "coordinates": [ 101.003333355344864, 15.114399804213997 ] } },
{ "type": "Feature", "properties": { "name": "Dominican Rep.", "name_ja": "ドミニカ共和国", "avg_iq": 93.02, "sd_iq": 8.69 }, "geometry": { "type": "Point", "coordinates": [ -70.496586538456697, 18.896365870018773 ] } },
{ "type": "Feature", "properties": { "name": "Kuwait", "name_ja": "クウェート", "avg_iq": 96.53, "sd_iq": 13.12 }, "geometry": { "type": "Point", "coordinates": [ 47.594623568789729, 29.340042154449232 ] } },
{ "type": "Feature", "properties": { "name": "El Salvador", "name_ja": "エルサルバドル", "avg_iq": 91.3, "sd_iq": 13.72 }, "geometry": { "type": "Point", "coordinates": [ -88.87103252208955, 13.735849549208535 ] } },
{ "type": "Feature", "properties": { "name": "Guatemala", "name_ja": "グアテマラ", "avg_iq": 93.94, "sd_iq": 8.51 }, "geometry": { "type": "Point", "coordinates": [ -90.360156835884908, 15.696016409029424 ] } },
{ "type": "Feature", "properties": { "name": "Algeria", "name_ja": "アルジェリア", "avg_iq": 98.25, "sd_iq": 12.88 }, "geometry": { "type": "Point", "coordinates": [ 2.65309137679737, 28.148889657330656 ] } },
{ "type": "Feature", "properties": { "name": "Mozambique", "name_ja": "モザンビーク", "avg_iq": 90.08, "sd_iq": 12.82 }, "geometry": { "type": "Point", "coordinates": [ 35.538105532484288, -17.270010026863304 ] } },
{ "type": "Feature", "properties": { "name": "Myanmar", "name_ja": "ミャンマー", "avg_iq": 98.51, "sd_iq": 9.67 }, "geometry": { "type": "Point", "coordinates": [ 96.48928954076267, 21.167669946541121 ] } },
{ "type": "Feature", "properties": { "name": "Bangladesh", "name_ja": "バングラデシュ", "avg_iq": 96.13, "sd_iq": 11.39 }, "geometry": { "type": "Point", "coordinates": [ 90.241999839476904, 23.845677724414198 ] } },
{ "type": "Feature", "properties": { "name": "Montenegro", "name_ja": "モンテネグロ", "avg_iq": 107.44, "sd_iq": 14.69 }, "geometry": { "type": "Point", "coordinates": [ 19.238500007219642, 42.785818177799129 ] } },
{ "type": "Feature", "properties": { "name": "Bosnia and Herz.", "name_ja": "ボスニア・ヘルツェゴビナ", "avg_iq": 104.52, "sd_iq": 14.03 }, "geometry": { "type": "Point", "coordinates": [ 17.773408020339716, 44.171734056477149 ] } },
{ "type": "Feature", "properties": { "name": "Cuba", "name_ja": "キューバ", "avg_iq": 97.78, "sd_iq": 9.96 }, "geometry": { "type": "Point", "coordinates": [ -79.035211756594563, 21.625298051297925 ] } },
{ "type": "Feature", "properties": { "name": "Honduras", "name_ja": "ホンジュラス", "avg_iq": 92.94, "sd_iq": 10.18 }, "geometry": { "type": "Point", "coordinates": [ -86.62522683328217, 14.821009202358391 ] } },
{ "type": "Feature", "properties": { "name": "Ecuador", "name_ja": "エクアドル", "avg_iq": 98.12, "sd_iq": 12.23 }, "geometry": { "type": "Point", "coordinates": [ -78.772282311204876, -1.426241473610281 ] } },
{ "type": "Feature", "properties": { "name": "Colombia", "name_ja": "コロンビア", "avg_iq": 95.79, "sd_iq": 12.81 }, "geometry": { "type": "Point", "coordinates": [ -73.083842104253179, 3.909413048850173 ] } },
{ "type": "Feature", "properties": { "name": "Paraguay", "name_ja": "パラグアイ", "avg_iq": 90.52, "sd_iq": 11.92 }, "geometry": { "type": "Point", "coordinates": [ -58.398422807693819, -23.227518815638405 ] } },
{ "type": "Feature", "properties": { "name": "Portugal", "name_ja": "ポルトガル", "avg_iq": 99.21, "sd_iq": 12.07 }, "geometry": { "type": "Point", "coordinates": [ -8.590837589005917, 39.587146863899271 ] } },
{ "type": "Feature", "properties": { "name": "Moldova", "name_ja": "モルドバ", "avg_iq": 96.73, "sd_iq": 11.87 }, "geometry": { "type": "Point", "coordinates": [ 28.461397130424849, 47.195101488994368 ] } },
{ "type": "Feature", "properties": { "name": "Jordan", "name_ja": "ヨルダン", "avg_iq": 97.71, "sd_iq": 12.56 }, "geometry": { "type": "Point", "coordinates": [ 36.77092318207464, 31.245576138022621 ] } },
{ "type": "Feature", "properties": { "name": "Nepal", "name_ja": "ネパール", "avg_iq": 98.21, "sd_iq": 11.2 }, "geometry": { "type": "Point", "coordinates": [ 83.916253373777877, 28.247922223584528 ] } },
{ "type": "Feature", "properties": { "name": "Cameroon", "name_ja": "カメルーン", "avg_iq": 94.53, "sd_iq": 10.88 }, "geometry": { "type": "Point", "coordinates": [ 12.736984165340324, 5.693058205842997 ] } },
{ "type": "Feature", "properties": { "name": "United States of America", "name_ja": "アメリカ合衆国", "avg_iq": 96.59, "sd_iq": 12.68 }, "geometry": { "type": "Point", "coordinates": [ -112.496163555505248, 45.688119371519022 ] } },
{ "type": "Feature", "properties": { "name": "Canada", "name_ja": "カナダ", "avg_iq": 99.42, "sd_iq": 12.85 }, "geometry": { "type": "Point", "coordinates": [ -98.293713392121234, 61.376351016442165 ] } },
{ "type": "Feature", "properties": { "name": "Mexico", "name_ja": "メキシコ", "avg_iq": 96.27, "sd_iq": 12.66 }, "geometry": { "type": "Point", "coordinates": [ -102.530307873527548, 23.949171200328962 ] } },
{ "type": "Feature", "properties": { "name": "Venezuela", "name_ja": "ベネズエラ", "avg_iq": 96.9, "sd_iq": 11.46 }, "geometry": { "type": "Point", "coordinates": [ -66.168840286068232, 7.127731584838519 ] } },
{ "type": "Feature", "properties": { "name": "Egypt", "name_ja": "エジプト", "avg_iq": 98.67, "sd_iq": 12.33 }, "geometry": { "type": "Point", "coordinates": [ 29.861110795802372, 26.492993084547354 ] } },
{ "type": "Feature", "properties": { "name": "Hong Kong", "name_ja": "香港", "avg_iq": 109.63, "sd_iq": 13.19 }, "geometry": { "type": "Point", "coordinates": [ 114.131446886841886, 22.384636894076483 ] } },
{ "type": "Feature", "properties": { "name": "Australia", "name_ja": "オーストラリア", "avg_iq": 98.07, "sd_iq": 12.32 }, "geometry": { "type": "Point", "coordinates": [ 134.491118787799763, -25.732310539055824 ] } },
{ "type": "Feature", "properties": { "name": "New Zealand", "name_ja": "ニュージーランド", "avg_iq": 100.69, "sd_iq": 14.12 }, "geometry": { "type": "Point", "coordinates": [ 171.470704448094182, -41.829363538914947 ] } },
{ "type": "Feature", "properties": { "name": "Philippines", "name_ja": "フィリピン", "avg_iq": 96.56, "sd_iq": 11.26 }, "geometry": { "type": "Point", "coordinates": [ 122.874682384733887, 11.762749810031638 ] } },
{ "type": "Feature", "properties": { "name": "Sri Lanka", "name_ja": "スリランカ", "avg_iq": 102.45, "sd_iq": 12.62 }, "geometry": { "type": "Point", "coordinates": [ 80.703162719300153, 7.615914657406042 ] } },
{ "type": "Feature", "properties": { "name": "Taiwan", "name_ja": "中華民国", "avg_iq": 111.2, "sd_iq": 11.61 }, "geometry": { "type": "Point", "coordinates": [ 120.949875329768801, 23.752985113410116 ] } },
{ "type": "Feature", "properties": { "name": "Japan", "name_ja": "日本", "avg_iq": 112.29, "sd_iq": 12.35 }, "geometry": { "type": "Point", "coordinates": [ 137.978347609876465, 37.551177393614829 ] } },
{ "type": "Feature", "properties": { "name": "Singapore", "name_ja": "シンガポール", "avg_iq": 103.66, "sd_iq": 14.78 }, "geometry": { "type": "Point", "coordinates": [ 103.813467658017387, 1.358921020243697 ] } },
{ "type": "Feature", "properties": { "name": "Indonesia", "name_ja": "インドネシア", "avg_iq": 93.49, "sd_iq": 11.14 }, "geometry": { "type": "Point", "coordinates": [ 117.270433339166885, -2.222961002517389 ] } },
{ "type": "Feature", "properties": { "name": "Costa Rica", "name_ja": "コスタリカ", "avg_iq": 94.38, "sd_iq": 11.45 }, "geometry": { "type": "Point", "coordinates": [ -84.193527564943707, 9.973436994052134 ] } },
{ "type": "Feature", "properties": { "name": "Kazakhstan", "name_ja": "カザフスタン", "avg_iq": 95.49, "sd_iq": 11.6 }, "geometry": { "type": "Point", "coordinates": [ 67.29596442802773, 48.160651763283752 ] } },
{ "type": "Feature", "properties": { "name": "Armenia", "name_ja": "アルメニア", "avg_iq": 96.44, "sd_iq": 11.67 }, "geometry": { "type": "Point", "coordinates": [ 44.932301218128472, 40.288134153911457 ] } },
{ "type": "Feature", "properties": { "name": "Austria", "name_ja": "オーストリア", "avg_iq": 106.66, "sd_iq": 15.04 }, "geometry": { "type": "Point", "coordinates": [ 14.130672866590414, 47.585656923239647 ] } },
{ "type": "Feature", "properties": { "name": "Angola", "name_ja": "アンゴラ", "avg_iq": 90.8, "sd_iq": 10.43 }, "geometry": { "type": "Point", "coordinates": [ 17.536985012360578, -12.29231569092981 ] } },
{ "type": "Feature", "properties": { "name": "Panama", "name_ja": "パナマ", "avg_iq": 91.39, "sd_iq": 13.16 }, "geometry": { "type": "Point", "coordinates": [ -80.121294950699891, 8.514556966455009 ] } },
{ "type": "Feature", "properties": { "name": "Slovakia", "name_ja": "スロバキア", "avg_iq": 106.45, "sd_iq": 13.34 }, "geometry": { "type": "Point", "coordinates": [ 19.480382971203447, 48.704935301709682 ] } },
{ "type": "Feature", "properties": { "name": "Dhekelia", "name_ja": "デケリア", "avg_iq": null, "sd_iq": null }, "geometry": { "type": "Point", "coordinates": [ 33.792996880697039, 35.017796312107549 ] } },
{ "type": "Feature", "properties": { "name": "China", "name_ja": "中華人民共和国", "avg_iq": null, "sd_iq": null }, "geometry": { "type": "Point", "coordinates": [ 103.832592458364317, 36.559273329714401 ] } },
{ "type": "Feature", "properties": { "name": "Palestine", "name_ja": "パレスチナ", "avg_iq": null, "sd_iq": null }, "geometry": { "type": "Point", "coordinates": [ 35.200650259112741, 31.917513226122324 ] } },
{ "type": "Feature", "properties": { "name": "S. Sudan", "name_ja": "南スーダン", "avg_iq": null, "sd_iq": null }, "geometry": { "type": "Point", "coordinates": [ 30.301119612240672, 7.283530707685559 ] } },
{ "type": "Feature", "properties": { "name": "Somalia", "name_ja": "ソマリア", "avg_iq": null, "sd_iq": null }, "geometry": { "type": "Point", "coordinates": [ 45.706144375313599, 4.748836792329111 ] } },
{ "type": "Feature", "properties": { "name": "Malawi", "name_ja": "マラウイ", "avg_iq": null, "sd_iq": null }, "geometry": { "type": "Point", "coordinates": [ 34.28990780344175, -13.217225864686156 ] } },
{ "type": "Feature", "properties": { "name": "Tanzania", "name_ja": "タンザニア", "avg_iq": null, "sd_iq": null }, "geometry": { "type": "Point", "coordinates": [ 34.813586420527614, -6.275097481093861 ] } },
{ "type": "Feature", "properties": { "name": "Somaliland", "name_ja": "ソマリランド", "avg_iq": null, "sd_iq": null }, "geometry": { "type": "Point", "coordinates": [ 46.254819073924821, 9.731015816127845 ] } },
{ "type": "Feature", "properties": { "name": "Suriname", "name_ja": "スリナム", "avg_iq": null, "sd_iq": null }, "geometry": { "type": "Point", "coordinates": [ -55.9110713607771, 4.131244979145134 ] } },
{ "type": "Feature", "properties": { "name": "Guyana", "name_ja": "ガイアナ", "avg_iq": null, "sd_iq": null }, "geometry": { "type": "Point", "coordinates": [ -58.980114652788835, 4.793461869442655 ] } },
{ "type": "Feature", "properties": { "name": "North Korea", "name_ja": "朝鮮民主主義人民共和国", "avg_iq": null, "sd_iq": null }, "geometry": { "type": "Point", "coordinates": [ 127.183777778966217, 40.150642744660651 ] } },
{ "type": "Feature", "properties": { "name": "W. Sahara", "name_ja": "西サハラ", "avg_iq": null, "sd_iq": null }, "geometry": { "type": "Point", "coordinates": [ -12.214961391852832, 24.232561060851175 ] } },
{ "type": "Feature", "properties": { "name": "Congo", "name_ja": "コンゴ共和国", "avg_iq": null, "sd_iq": null }, "geometry": { "type": "Point", "coordinates": [ 15.21833615591202, -0.838879989081796 ] } },
{ "type": "Feature", "properties": { "name": "Dem. Rep. Congo", "name_ja": "コンゴ民主共和国", "avg_iq": null, "sd_iq": null }, "geometry": { "type": "Point", "coordinates": [ 23.645113654233686, -2.879799873230941 ] } },
{ "type": "Feature", "properties": { "name": "Bhutan", "name_ja": "ブータン", "avg_iq": null, "sd_iq": null }, "geometry": { "type": "Point", "coordinates": [ 90.40668782822145, 27.421508542052031 ] } },
{ "type": "Feature", "properties": { "name": "Namibia", "name_ja": "ナミビア", "avg_iq": null, "sd_iq": null }, "geometry": { "type": "Point", "coordinates": [ 17.211133197410096, -22.129246638667265 ] } },
{ "type": "Feature", "properties": { "name": "St-Martin", "name_ja": "サン・マルタン", "avg_iq": null, "sd_iq": null }, "geometry": { "type": "Point", "coordinates": [ -63.05507063109814, 18.077620618727945 ] } },
{ "type": "Feature", "properties": { "name": "Sint Maarten", "name_ja": "シント・マールテン", "avg_iq": null, "sd_iq": null }, "geometry": { "type": "Point", "coordinates": [ -63.070132700299546, 18.040630483456788 ] } },
{ "type": "Feature", "properties": { "name": "North Macedonia", "name_ja": "北マケドニア", "avg_iq": null, "sd_iq": null }, "geometry": { "type": "Point", "coordinates": [ 21.683830410347362, 41.595004925513081 ] } },
{ "type": "Feature", "properties": { "name": "Kosovo", "name_ja": "コソボ共和国", "avg_iq": null, "sd_iq": null }, "geometry": { "type": "Point", "coordinates": [ 20.87374297673928, 42.572883356033749 ] } },
{ "type": "Feature", "properties": { "name": "Libya", "name_ja": "リビア", "avg_iq": null, "sd_iq": null }, "geometry": { "type": "Point", "coordinates": [ 18.009605121039375, 27.030277975756949 ] } },
{ "type": "Feature", "properties": { "name": "Zambia", "name_ja": "ザンビア", "avg_iq": null, "sd_iq": null }, "geometry": { "type": "Point", "coordinates": [ 27.77421233479679, -13.460110018365597 ] } },
{ "type": "Feature", "properties": { "name": "Sierra Leone", "name_ja": "シエラレオネ", "avg_iq": null, "sd_iq": null }, "geometry": { "type": "Point", "coordinates": [ -11.795015578320857, 8.563085842860376 ] } },
{ "type": "Feature", "properties": { "name": "Guinea", "name_ja": "ギニア", "avg_iq": null, "sd_iq": null }, "geometry": { "type": "Point", "coordinates": [ -10.943061266001438, 10.434649046539638 ] } },
{ "type": "Feature", "properties": { "name": "Liberia", "name_ja": "リベリア", "avg_iq": null, "sd_iq": null }, "geometry": { "type": "Point", "coordinates": [ -9.31986399326231, 6.452232554621309 ] } },
{ "type": "Feature", "properties": { "name": "Central African Rep.", "name_ja": "中央アフリカ共和国", "avg_iq": null, "sd_iq": null }, "geometry": { "type": "Point", "coordinates": [ 20.464809197122126, 6.566321860159118 ] } },
{ "type": "Feature", "properties": { "name": "Sudan", "name_ja": "スーダン", "avg_iq": null, "sd_iq": null }, "geometry": { "type": "Point", "coordinates": [ 29.935401567536221, 15.980242310859177 ] } },
{ "type": "Feature", "properties": { "name": "Djibouti", "name_ja": "ジブチ", "avg_iq": null, "sd_iq": null }, "geometry": { "type": "Point", "coordinates": [ 42.566453652312454, 11.750155875505786 ] } },
{ "type": "Feature", "properties": { "name": "Eritrea", "name_ja": "エリトリア", "avg_iq": null, "sd_iq": null }, "geometry": { "type": "Point", "coordinates": [ 38.852944403392719, 15.357513715436852 ] } },
{ "type": "Feature", "properties": { "name": "Liechtenstein", "name_ja": "リヒテンシュタイン", "avg_iq": null, "sd_iq": null }, "geometry": { "type": "Point", "coordinates": [ 9.540900288636877, 47.138206429457711 ] } },
{ "type": "Feature", "properties": { "name": "Côte d'Ivoire", "name_ja": "コートジボワール", "avg_iq": null, "sd_iq": null }, "geometry": { "type": "Point", "coordinates": [ -5.569000185937262, 7.627966516559817 ] } },
{ "type": "Feature", "properties": { "name": "Mali", "name_ja": "マリ共和国", "avg_iq": null, "sd_iq": null }, "geometry": { "type": "Point", "coordinates": [ -3.539079394800936, 17.344162775603348 ] } },
{ "type": "Feature", "properties": { "name": "Senegal", "name_ja": "セネガル", "avg_iq": null, "sd_iq": null }, "geometry": { "type": "Point", "coordinates": [ -14.471306027638777, 14.367788578853149 ] } },
{ "type": "Feature", "properties": { "name": "Benin", "name_ja": "ベナン", "avg_iq": null, "sd_iq": null }, "geometry": { "type": "Point", "coordinates": [ 2.328740730882774, 9.641216685182671 ] } },
{ "type": "Feature", "properties": { "name": "Botswana", "name_ja": "ボツワナ", "avg_iq": null, "sd_iq": null }, "geometry": { "type": "Point", "coordinates": [ 23.798986732813951, -22.185772321029269 ] } },
{ "type": "Feature", "properties": { "name": "Zimbabwe", "name_ja": "ジンバブエ", "avg_iq": null, "sd_iq": null }, "geometry": { "type": "Point", "coordinates": [ 29.851884620576868, -19.002536710001973 ] } },
{ "type": "Feature", "properties": { "name": "San Marino", "name_ja": "サンマリノ", "avg_iq": null, "sd_iq": null }, "geometry": { "type": "Point", "coordinates": [ 12.442222558812462, 43.936466194596697 ] } },
{ "type": "Feature", "properties": { "name": "Haiti", "name_ja": "ハイチ", "avg_iq": null, "sd_iq": null }, "geometry": { "type": "Point", "coordinates": [ -72.690874062941944, 18.938371436631996 ] } },
{ "type": "Feature", "properties": { "name": "Chad", "name_ja": "チャド", "avg_iq": null, "sd_iq": null }, "geometry": { "type": "Point", "coordinates": [ 18.646251114002183, 15.333078105061832 ] } },
{ "type": "Feature", "properties": { "name": "Timor-Leste", "name_ja": "東ティモール", "avg_iq": null, "sd_iq": null }, "geometry": { "type": "Point", "coordinates": [ 125.851075570652824, -8.823778733775622 ] } },
{ "type": "Feature", "properties": { "name": "Brunei", "name_ja": "ブルネイ", "avg_iq": null, "sd_iq": null }, "geometry": { "type": "Point", "coordinates": [ 114.727245752165416, 4.516500312656111 ] } },
{ "type": "Feature", "properties": { "name": "Monaco", "name_ja": "モナコ", "avg_iq": null, "sd_iq": null }, "geometry": { "type": "Point", "coordinates": [ 7.398974324828741, 43.739846187413463 ] } },
{ "type": "Feature", "properties": { "name": "eSwatini", "name_ja": "エスワティニ", "avg_iq": null, "sd_iq": null }, "geometry": { "type": "Point", "coordinates": [ 31.480024103009157, -26.561914349027745 ] } },
{ "type": "Feature", "properties": { "name": "Burundi", "name_ja": "ブルンジ", "avg_iq": null, "sd_iq": null }, "geometry": { "type": "Point", "coordinates": [ 29.87508269442289, -3.35742533641364 ] } },
{ "type": "Feature", "properties": { "name": "Rwanda", "name_ja": "ルワンダ", "avg_iq": null, "sd_iq": null }, "geometry": { "type": "Point", "coordinates": [ 29.919060704593221, -1.992750527894079 ] } },
{ "type": "Feature", "properties": { "name": "Andorra", "name_ja": "アンドラ", "avg_iq": null, "sd_iq": null }, "geometry": { "type": "Point", "coordinates": [ 1.56075624107325, 42.541326525026143 ] } },
{ "type": "Feature", "properties": { "name": "Afghanistan", "name_ja": "アフガニスタン", "avg_iq": null, "sd_iq": null }, "geometry": { "type": "Point", "coordinates": [ 66.008447687238103, 33.836267071960435 ] } },
{ "type": "Feature", "properties": { "name": "Uganda", "name_ja": "ウガンダ", "avg_iq": null, "sd_iq": null }, "geometry": { "type": "Point", "coordinates": [ 32.367039852724993, 1.275691192508609 ] } },
{ "type": "Feature", "properties": { "name": "USNB Guantanamo Bay", "name_ja": "グァンタナモ米軍基地", "avg_iq": null, "sd_iq": null }, "geometry": { "type": "Point", "coordinates": [ -75.154673405590117, 19.929253601443925 ] } },
{ "type": "Feature", "properties": { "name": "Brazilian I.", "name_ja": "ブラジレイラ島", "avg_iq": null, "sd_iq": null }, "geometry": { "type": "Point", "coordinates": [ -57.623041801948602, -30.187955163072438 ] } },
{ "type": "Feature", "properties": { "name": "Turkmenistan", "name_ja": "トルクメニスタン", "avg_iq": null, "sd_iq": null }, "geometry": { "type": "Point", "coordinates": [ 59.375960735620318, 39.115933902448674 ] } },
{ "type": "Feature", "properties": { "name": "Lesotho", "name_ja": "レソト", "avg_iq": null, "sd_iq": null }, "geometry": { "type": "Point", "coordinates": [ 28.228622924994479, -29.579730444231824 ] } },
{ "type": "Feature", "properties": { "name": "Gabon", "name_ja": "ガボン", "avg_iq": null, "sd_iq": null }, "geometry": { "type": "Point", "coordinates": [ 11.789569256833385, -0.591655916851916 ] } },
{ "type": "Feature", "properties": { "name": "Niger", "name_ja": "ニジェール", "avg_iq": null, "sd_iq": null }, "geometry": { "type": "Point", "coordinates": [ 9.386033996676115, 17.418463771018548 ] } },
{ "type": "Feature", "properties": { "name": "Burkina Faso", "name_ja": "ブルキナファソ", "avg_iq": null, "sd_iq": null }, "geometry": { "type": "Point", "coordinates": [ -1.75552769525662, 12.269553913794409 ] } },
{ "type": "Feature", "properties": { "name": "Togo", "name_ja": "トーゴ", "avg_iq": null, "sd_iq": null }, "geometry": { "type": "Point", "coordinates": [ 0.962271599645203, 8.526788206050862 ] } },
{ "type": "Feature", "properties": { "name": "Ghana", "name_ja": "ガーナ", "avg_iq": null, "sd_iq": null }, "geometry": { "type": "Point", "coordinates": [ -1.216523831432959, 7.95395472367625 ] } },
{ "type": "Feature", "properties": { "name": "Guinea-Bissau", "name_ja": "ギニアビサウ", "avg_iq": null, "sd_iq": null }, "geometry": { "type": "Point", "coordinates": [ -14.97751375416175, 12.026921903332783 ] } },
{ "type": "Feature", "properties": { "name": "Gibraltar", "name_ja": "ジブラルタル", "avg_iq": null, "sd_iq": null }, "geometry": { "type": "Point", "coordinates": [ -5.346700323709023, 36.129463670366221 ] } },
{ "type": "Feature", "properties": { "name": "Belize", "name_ja": "ベリーズ", "avg_iq": null, "sd_iq": null }, "geometry": { "type": "Point", "coordinates": [ -88.693888531417159, 17.208318691527936 ] } },
{ "type": "Feature", "properties": { "name": "Papua New Guinea", "name_ja": "パプアニューギニア", "avg_iq": null, "sd_iq": null }, "geometry": { "type": "Point", "coordinates": [ 145.231523620721418, -6.47012059570303 ] } },
{ "type": "Feature", "properties": { "name": "Yemen", "name_ja": "イエメン", "avg_iq": null, "sd_iq": null }, "geometry": { "type": "Point", "coordinates": [ 47.590601952221562, 15.90542129317525 ] } },
{ "type": "Feature", "properties": { "name": "Mauritania", "name_ja": "モーリタニア", "avg_iq": null, "sd_iq": null }, "geometry": { "type": "Point", "coordinates": [ -10.343397920109224, 20.256218201588592 ] } },
{ "type": "Feature", "properties": { "name": "Eq. Guinea", "name_ja": "赤道ギニア", "avg_iq": null, "sd_iq": null }, "geometry": { "type": "Point", "coordinates": [ 10.332885460483293, 1.706961040047458 ] } },
{ "type": "Feature", "properties": { "name": "Gambia", "name_ja": "ガンビア", "avg_iq": null, "sd_iq": null }, "geometry": { "type": "Point", "coordinates": [ -15.397582025689497, 13.44972955855733 ] } },
{ "type": "Feature", "properties": { "name": "Vatican", "name_ja": "バチカン", "avg_iq": null, "sd_iq": null }, "geometry": { "type": "Point", "coordinates": [ 12.453417729395623, 41.903312469243915 ] } },
{ "type": "Feature", "properties": { "name": "N. Cyprus", "name_ja": "北キプロス・トルコ共和国", "avg_iq": null, "sd_iq": null }, "geometry": { "type": "Point", "coordinates": [ 33.597794235150815, 35.276421095773507 ] } },
{ "type": "Feature", "properties": { "name": "Cyprus U.N. Buffer Zone", "name_ja": "グリーンライン", "avg_iq": null, "sd_iq": null }, "geometry": { "type": "Point", "coordinates": [ 33.25746991891117, 35.101996656160878 ] } },
{ "type": "Feature", "properties": { "name": "Siachen Glacier", "name_ja": "シアチェン氷河", "avg_iq": null, "sd_iq": null }, "geometry": { "type": "Point", "coordinates": [ 77.179952798742733, 35.391081981279747 ] } },
{ "type": "Feature", "properties": { "name": "Baikonur", "name_ja": "バイコヌール", "avg_iq": null, "sd_iq": null }, "geometry": { "type": "Point", "coordinates": [ 63.38389700313769, 45.978330138225097 ] } },
{ "type": "Feature", "properties": { "name": "Akrotiri", "name_ja": "アクロティリ", "avg_iq": null, "sd_iq": null }, "geometry": { "type": "Point", "coordinates": [ 32.933994860347717, 34.631813284864926 ] } },
{ "type": "Feature", "properties": { "name": "Southern Patagonian Ice Field", "name_ja": "南パタゴニア氷原", "avg_iq": null, "sd_iq": null }, "geometry": { "type": "Point", "coordinates": [ -73.318833563849012, -49.512342815833904 ] } },
{ "type": "Feature", "properties": { "name": "Bir Tawil", "name_ja": "ビル・タウィール", "avg_iq": null, "sd_iq": null }, "geometry": { "type": "Point", "coordinates": [ 33.682028064483916, 21.879869087699028 ] } },
{ "type": "Feature", "properties": { "name": "Antarctica", "name_ja": "南極大陸", "avg_iq": null, "sd_iq": null }, "geometry": { "type": "Point", "coordinates": [ 19.908399063937672, -80.508219378774399 ] } },
{ "type": "Feature", "properties": { "name": "Greenland", "name_ja": "グリーンランド", "avg_iq": null, "sd_iq": null }, "geometry": { "type": "Point", "coordinates": [ -41.345739366750266, 74.735990621560518 ] } },
{ "type": "Feature", "properties": { "name": "Fiji", "name_ja": "フィジー", "avg_iq": null, "sd_iq": null }, "geometry": { "type": "Point", "coordinates": [ 163.407865593158846, -17.447561952127661 ] } },
{ "type": "Feature", "properties": { "name": "New Caledonia", "name_ja": "ニューカレドニア", "avg_iq": null, "sd_iq": null }, "geometry": { "type": "Point", "coordinates": [ 165.702654748523116, -21.304340145282623 ] } },
{ "type": "Feature", "properties": { "name": "Madagascar", "name_ja": "マダガスカル", "avg_iq": null, "sd_iq": null }, "geometry": { "type": "Point", "coordinates": [ 46.705998313348537, -19.373167530006715 ] } },
{ "type": "Feature", "properties": { "name": "Curaçao", "name_ja": "キュラソー", "avg_iq": null, "sd_iq": null }, "geometry": { "type": "Point", "coordinates": [ -68.971305607009612, 12.193821089163583 ] } },
{ "type": "Feature", "properties": { "name": "Aruba", "name_ja": "アルバ", "avg_iq": null, "sd_iq": null }, "geometry": { "type": "Point", "coordinates": [ -69.974200750287281, 12.516935269076269 ] } },
{ "type": "Feature", "properties": { "name": "Bahamas", "name_ja": "バハマ", "avg_iq": null, "sd_iq": null }, "geometry": { "type": "Point", "coordinates": [ -76.551492913128186, 24.223985405737352 ] } },
{ "type": "Feature", "properties": { "name": "Turks and Caicos Is.", "name_ja": "タークス・カイコス諸島", "avg_iq": null, "sd_iq": null }, "geometry": { "type": "Point", "coordinates": [ -71.873306601705394, 21.780045376327031 ] } },
{ "type": "Feature", "properties": { "name": "St. Pierre and Miquelon", "name_ja": "サンピエール島・ミクロン島", "avg_iq": null, "sd_iq": null }, "geometry": { "type": "Point", "coordinates": [ -56.307813542482599, 46.930457949750945 ] } },
{ "type": "Feature", "properties": { "name": "Iceland", "name_ja": "アイスランド", "avg_iq": null, "sd_iq": null }, "geometry": { "type": "Point", "coordinates": [ -18.596445927816283, 64.998315820473422 ] } },
{ "type": "Feature", "properties": { "name": "Pitcairn Is.", "name_ja": "ピトケアン諸島", "avg_iq": null, "sd_iq": null }, "geometry": { "type": "Point", "coordinates": [ -128.479267060733065, -24.412769983988184 ] } },
{ "type": "Feature", "properties": { "name": "Fr. Polynesia", "name_ja": "フランス領ポリネシア", "avg_iq": null, "sd_iq": null }, "geometry": { "type": "Point", "coordinates": [ -145.052040358355526, -15.188779595799312 ] } },
{ "type": "Feature", "properties": { "name": "Fr. S. Antarctic Lands", "name_ja": "フランス領南方・南極地域", "avg_iq": null, "sd_iq": null }, "geometry": { "type": "Point", "coordinates": [ 68.992134044780713, -49.065151470727578 ] } },
{ "type": "Feature", "properties": { "name": "Seychelles", "name_ja": "セーシェル", "avg_iq": null, "sd_iq": null }, "geometry": { "type": "Point", "coordinates": [ 52.062291900404794, -6.48999048371016 ] } },
{ "type": "Feature", "properties": { "name": "Kiribati", "name_ja": "キリバス", "avg_iq": null, "sd_iq": null }, "geometry": { "type": "Point", "coordinates": [ -51.525325360089575, 0.615185708136551 ] } },
{ "type": "Feature", "properties": { "name": "Marshall Is.", "name_ja": "マーシャル諸島", "avg_iq": null, "sd_iq": null }, "geometry": { "type": "Point", "coordinates": [ 170.099527812079231, 7.114465335463241 ] } },
{ "type": "Feature", "properties": { "name": "Trinidad and Tobago", "name_ja": "トリニダード・トバゴ", "avg_iq": null, "sd_iq": null }, "geometry": { "type": "Point", "coordinates": [ -61.258449839275492, 10.468829856764719 ] } },
{ "type": "Feature", "properties": { "name": "Grenada", "name_ja": "グレナダ", "avg_iq": null, "sd_iq": null }, "geometry": { "type": "Point", "coordinates": [ -61.656682383265242, 12.15337240431248 ] } },
{ "type": "Feature", "properties": { "name": "St. Vin. and Gren.", "name_ja": "セントビンセント・グレナディーン", "avg_iq": null, "sd_iq": null }, "geometry": { "type": "Point", "coordinates": [ -61.203353266324562, 13.216215919317463 ] } },
{ "type": "Feature", "properties": { "name": "Barbados", "name_ja": "バルバドス", "avg_iq": null, "sd_iq": null }, "geometry": { "type": "Point", "coordinates": [ -59.561217748118047, 13.18105382678023 ] } },
{ "type": "Feature", "properties": { "name": "Saint Lucia", "name_ja": "セントルシア", "avg_iq": null, "sd_iq": null }, "geometry": { "type": "Point", "coordinates": [ -60.970316531144185, 13.90267054680924 ] } },
{ "type": "Feature", "properties": { "name": "Dominica", "name_ja": "ドミニカ国", "avg_iq": null, "sd_iq": null }, "geometry": { "type": "Point", "coordinates": [ -61.35691759205698, 15.436440485357714 ] } },
{ "type": "Feature", "properties": { "name": "U.S. Minor Outlying Is.", "name_ja": "合衆国領有小離島", "avg_iq": null, "sd_iq": null }, "geometry": { "type": "Point", "coordinates": [ -103.278920290215041, 13.302974243669571 ] } },
{ "type": "Feature", "properties": { "name": "Montserrat", "name_ja": "モントセラト", "avg_iq": null, "sd_iq": null }, "geometry": { "type": "Point", "coordinates": [ -62.1873987829564, 16.737523565117023 ] } },
{ "type": "Feature", "properties": { "name": "Antigua and Barb.", "name_ja": "アンティグア・バーブーダ", "avg_iq": null, "sd_iq": null }, "geometry": { "type": "Point", "coordinates": [ -61.792183840337771, 17.284096195258975 ] } },
{ "type": "Feature", "properties": { "name": "St. Kitts and Nevis", "name_ja": "セントクリストファー・ネイビス", "avg_iq": null, "sd_iq": null }, "geometry": { "type": "Point", "coordinates": [ -62.698545446231847, 17.271042252571828 ] } },
{ "type": "Feature", "properties": { "name": "U.S. Virgin Is.", "name_ja": "アメリカ領ヴァージン諸島", "avg_iq": null, "sd_iq": null }, "geometry": { "type": "Point", "coordinates": [ -64.797654450276426, 17.980545606337444 ] } },
{ "type": "Feature", "properties": { "name": "St-Barthélemy", "name_ja": "サン・バルテルミー島", "avg_iq": null, "sd_iq": null }, "geometry": { "type": "Point", "coordinates": [ -62.832619624888217, 17.905584521849249 ] } },
{ "type": "Feature", "properties": { "name": "Puerto Rico", "name_ja": "プエルトリコ", "avg_iq": null, "sd_iq": null }, "geometry": { "type": "Point", "coordinates": [ -66.467600292819981, 18.223816465407822 ] } },
{ "type": "Feature", "properties": { "name": "Anguilla", "name_ja": "アンギラ", "avg_iq": null, "sd_iq": null }, "geometry": { "type": "Point", "coordinates": [ -63.059148590104378, 18.230146269312868 ] } },
{ "type": "Feature", "properties": { "name": "British Virgin Is.", "name_ja": "イギリス領ヴァージン諸島", "avg_iq": null, "sd_iq": null }, "geometry": { "type": "Point", "coordinates": [ -64.502863193801858, 18.509884129186833 ] } },
{ "type": "Feature", "properties": { "name": "Jamaica", "name_ja": "ジャマイカ", "avg_iq": null, "sd_iq": null }, "geometry": { "type": "Point", "coordinates": [ -77.318810465983177, 18.155226388380452 ] } },
{ "type": "Feature", "properties": { "name": "Cayman Is.", "name_ja": "ケイマン諸島", "avg_iq": null, "sd_iq": null }, "geometry": { "type": "Point", "coordinates": [ -80.877025890665223, 19.426331163818006 ] } },
{ "type": "Feature", "properties": { "name": "Bermuda", "name_ja": "バミューダ諸島", "avg_iq": null, "sd_iq": null }, "geometry": { "type": "Point", "coordinates": [ -64.763491382591525, 32.310136578116776 ] } },
{ "type": "Feature", "properties": { "name": "Heard I. and McDonald Is.", "name_ja": "ハード島とマクドナルド諸島", "avg_iq": null, "sd_iq": null }, "geometry": { "type": "Point", "coordinates": [ 73.505210188899298, -53.088817025792864 ] } },
{ "type": "Feature", "properties": { "name": "Saint Helena", "name_ja": "セントヘレナ", "avg_iq": null, "sd_iq": null }, "geometry": { "type": "Point", "coordinates": [ -10.138417837167889, -24.91135023628668 ] } },
{ "type": "Feature", "properties": { "name": "Mauritius", "name_ja": "モーリシャス", "avg_iq": null, "sd_iq": null }, "geometry": { "type": "Point", "coordinates": [ 57.849700164766794, -20.185543869694726 ] } },
{ "type": "Feature", "properties": { "name": "Comoros", "name_ja": "コモロ", "avg_iq": null, "sd_iq": null }, "geometry": { "type": "Point", "coordinates": [ 43.680163186549855, -11.88421621148999 ] } },
{ "type": "Feature", "properties": { "name": "São Tomé and Principe", "name_ja": "サントメ・プリンシペ", "avg_iq": null, "sd_iq": null }, "geometry": { "type": "Point", "coordinates": [ 6.72644287419379, 0.444260037724663 ] } },
{ "type": "Feature", "properties": { "name": "Cabo Verde", "name_ja": "カーボベルデ", "avg_iq": null, "sd_iq": null }, "geometry": { "type": "Point", "coordinates": [ -23.975655808018544, 15.94515192693099 ] } },
{ "type": "Feature", "properties": { "name": "Malta", "name_ja": "マルタ", "avg_iq": null, "sd_iq": null }, "geometry": { "type": "Point", "coordinates": [ 14.403754031434133, 35.921026987006606 ] } },
{ "type": "Feature", "properties": { "name": "Jersey", "name_ja": "ジャージー", "avg_iq": null, "sd_iq": null }, "geometry": { "type": "Point", "coordinates": [ -2.127430814463969, 49.221064211058888 ] } },
{ "type": "Feature", "properties": { "name": "Guernsey", "name_ja": "ガーンジー", "avg_iq": null, "sd_iq": null }, "geometry": { "type": "Point", "coordinates": [ -2.530480023291007, 49.484372922866875 ] } },
{ "type": "Feature", "properties": { "name": "Isle of Man", "name_ja": "マン島", "avg_iq": null, "sd_iq": null }, "geometry": { "type": "Point", "coordinates": [ -4.533695083083717, 54.229101900397445 ] } },
{ "type": "Feature", "properties": { "name": "Åland", "name_ja": "オーランド諸島", "avg_iq": null, "sd_iq": null }, "geometry": { "type": "Point", "coordinates": [ 20.055582821781428, 60.186447251359944 ] } },
{ "type": "Feature", "properties": { "name": "Faeroe Is.", "name_ja": "フェロー諸島", "avg_iq": null, "sd_iq": null }, "geometry": { "type": "Point", "coordinates": [ -6.870554776167014, 62.074027254458485 ] } },
{ "type": "Feature", "properties": { "name": "Indian Ocean Ter.", "name_ja": "オーストラリア領インド洋地域", "avg_iq": null, "sd_iq": null }, "geometry": { "type": "Point", "coordinates": [ 104.61939744150969, -10.692174091830893 ] } },
{ "type": "Feature", "properties": { "name": "Br. Indian Ocean Ter.", "name_ja": "イギリス領インド洋地域", "avg_iq": null, "sd_iq": null }, "geometry": { "type": "Point", "coordinates": [ 72.29881482081548, -7.144331220255609 ] } },
{ "type": "Feature", "properties": { "name": "Norfolk Island", "name_ja": "ノーフォーク島", "avg_iq": null, "sd_iq": null }, "geometry": { "type": "Point", "coordinates": [ 167.955169332517357, -29.034975103276452 ] } },
{ "type": "Feature", "properties": { "name": "Cook Is.", "name_ja": "クック諸島", "avg_iq": null, "sd_iq": null }, "geometry": { "type": "Point", "coordinates": [ -158.791213605311469, -19.814508526851316 ] } },
{ "type": "Feature", "properties": { "name": "Tonga", "name_ja": "トンガ", "avg_iq": null, "sd_iq": null }, "geometry": { "type": "Point", "coordinates": [ -174.868512272483855, -20.066559736563335 ] } },
{ "type": "Feature", "properties": { "name": "Wallis and Futuna Is.", "name_ja": "ウォリス・フツナ", "avg_iq": null, "sd_iq": null }, "geometry": { "type": "Point", "coordinates": [ -177.05899602313923, -13.738101960846352 ] } },
{ "type": "Feature", "properties": { "name": "Samoa", "name_ja": "サモア", "avg_iq": null, "sd_iq": null }, "geometry": { "type": "Point", "coordinates": [ -172.161249299035546, -13.754595654027641 ] } },
{ "type": "Feature", "properties": { "name": "Solomon Is.", "name_ja": "ソロモン諸島", "avg_iq": null, "sd_iq": null }, "geometry": { "type": "Point", "coordinates": [ 159.638094462872289, -8.909583205357347 ] } },
{ "type": "Feature", "properties": { "name": "Tuvalu", "name_ja": "ツバル", "avg_iq": null, "sd_iq": null }, "geometry": { "type": "Point", "coordinates": [ 178.520353162549242, -7.759069095631683 ] } },
{ "type": "Feature", "properties": { "name": "Maldives", "name_ja": "モルディブ", "avg_iq": null, "sd_iq": null }, "geometry": { "type": "Point", "coordinates": [ 73.302270721543678, 3.827797928710234 ] } },
{ "type": "Feature", "properties": { "name": "Nauru", "name_ja": "ナウル", "avg_iq": null, "sd_iq": null }, "geometry": { "type": "Point", "coordinates": [ 166.933131929310719, -0.520782884828543 ] } },
{ "type": "Feature", "properties": { "name": "Micronesia", "name_ja": "ミクロネシア連邦", "avg_iq": null, "sd_iq": null }, "geometry": { "type": "Point", "coordinates": [ 155.260633533687496, 6.967281078922658 ] } },
{ "type": "Feature", "properties": { "name": "S. Geo. and the Is.", "name_ja": "サウスジョージア・サウスサンドウィッチ諸島", "avg_iq": null, "sd_iq": null }, "geometry": { "type": "Point", "coordinates": [ -35.882316614537707, -54.679219153004091 ] } },
{ "type": "Feature", "properties": { "name": "Falkland Is.", "name_ja": "フォークランド諸島", "avg_iq": null, "sd_iq": null }, "geometry": { "type": "Point", "coordinates": [ -59.376102806108342, -51.733307275972244 ] } },
{ "type": "Feature", "properties": { "name": "Vanuatu", "name_ja": "バヌアツ", "avg_iq": null, "sd_iq": null }, "geometry": { "type": "Point", "coordinates": [ 167.700844140941882, -16.201267919694779 ] } },
{ "type": "Feature", "properties": { "name": "Niue", "name_ja": "ニウエ", "avg_iq": null, "sd_iq": null }, "geometry": { "type": "Point", "coordinates": [ -169.869346042128399, -19.048919755968992 ] } },
{ "type": "Feature", "properties": { "name": "American Samoa", "name_ja": "アメリカ領サモア", "avg_iq": null, "sd_iq": null }, "geometry": { "type": "Point", "coordinates": [ -170.398920922756247, -14.254943512405328 ] } },
{ "type": "Feature", "properties": { "name": "Palau", "name_ja": "パラオ", "avg_iq": null, "sd_iq": null }, "geometry": { "type": "Point", "coordinates": [ 134.348033338371351, 7.19763597395198 ] } },
{ "type": "Feature", "properties": { "name": "Guam", "name_ja": "グアム", "avg_iq": null, "sd_iq": null }, "geometry": { "type": "Point", "coordinates": [ 144.771939120222669, 13.443793017343745 ] } },
{ "type": "Feature", "properties": { "name": "N. Mariana Is.", "name_ja": "北マリアナ諸島", "avg_iq": null, "sd_iq": null }, "geometry": { "type": "Point", "coordinates": [ 145.599955005694795, 16.250859762436196 ] } },
{ "type": "Feature", "properties": { "name": "Bahrain", "name_ja": "バーレーン", "avg_iq": null, "sd_iq": null }, "geometry": { "type": "Point", "coordinates": [ 50.563495775517374, 26.035519097566432 ] } },
{ "type": "Feature", "properties": { "name": "Coral Sea Is.", "name_ja": "コーラル・シー諸島", "avg_iq": null, "sd_iq": null }, "geometry": { "type": "Point", "coordinates": [ 154.390364345666711, -21.029283678666598 ] } },
{ "type": "Feature", "properties": { "name": "Spratly Is.", "name_ja": "ウェーク島", "avg_iq": null, "sd_iq": null }, "geometry": { "type": "Point", "coordinates": [ 114.927039933755353, 10.545020314740052 ] } },
{ "type": "Feature", "properties": { "name": "Clipperton I.", "name_ja": "クリッパートン島", "avg_iq": null, "sd_iq": null }, "geometry": { "type": "Point", "coordinates": [ -109.221264242508141, 10.297389383681706 ] } },
{ "type": "Feature", "properties": { "name": "Macao", "name_ja": "マカオ", "avg_iq": null, "sd_iq": null }, "geometry": { "type": "Point", "coordinates": [ 113.550197871713834, 22.157784411664821 ] } },
{ "type": "Feature", "properties": { "name": "Ashmore and Cartier Is.", "name_ja": "アシュモア・カルティエ諸島", "avg_iq": null, "sd_iq": null }, "geometry": { "type": "Point", "coordinates": [ 123.586367786442665, -12.432577176848286 ] } },
{ "type": "Feature", "properties": { "name": "Bajo Nuevo Bank", "name_ja": "バホヌエボ", "avg_iq": null, "sd_iq": null }, "geometry": { "type": "Point", "coordinates": [ -79.987865859317495, 15.795009963377407 ] } },
{ "type": "Feature", "properties": { "name": "Serranilla Bank", "name_ja": "セラニャ・バンク", "avg_iq": null, "sd_iq": null }, "geometry": { "type": "Point", "coordinates": [ -78.63811872766658, 15.864460896333414 ] } },
{ "type": "Feature", "properties": { "name": "Scarborough Reef", "name_ja": "スカボロー礁", "avg_iq": null, "sd_iq": null }, "geometry": { "type": "Point", "coordinates": [ 117.753811963333391, 15.152112822000067 ] } }
]
}
